GPS BIIR-2  (PRN 13)    
1 24876U 97035A   20037.31673675  .00000056  00000-0  00000-0 0  9992
2 24876  55.4571 189.3134 0039756  65.2260 295.1559  2.00564684165368
GPS BIIR-3  (PRN 11)    
1 25933U 99055A   20037.17090073 -.00000043  00000-0  00000-0 0  9997
2 25933  52.2504  35.7110 0156186 113.7660  79.9169  2.00657493148987
GPS BIIR-4  (PRN 20)    
1 26360U 00025A   20034.34594404 -.00000032  00000-0  00000-0 0  9992
2 26360  53.4514 114.7996 0049477 150.0660 202.2287  2.00568754144613
GPS BIIR-5  (PRN 28)    
1 26407U 00040A   20036.70227799 -.00000023  00000-0  00000-0 0  9993
2 26407  56.0926 307.4059 0189845 278.6638 299.9549  2.00564508143344
GPS BIIR-6  (PRN 14)    
1 26605U 00071A   20036.51347653  .00000057  00000-0  00000-0 0  9994
2 26605  55.0327 186.6991 0111111 249.7924 106.1217  2.00570558140933
GPS BIIR-8  (PRN 16)    
1 27663U 03005A   20036.97155281 -.00000021  00000-0  00000-0 0  9995
2 27663  56.1498 307.1775 0112507  33.4077 146.7390  2.00559591124710
GPS BIIR-9  (PRN 21)    
1 27704U 03010A   20034.31879223 -.00000034  00000-0  00000-0 0  9996
2 27704  54.5302  58.5282 0250462 281.4791 107.3523  2.00575897123462
GPS BIIR-10 (PRN 22)    
1 28129U 03058A   20034.02160059 -.00000031  00000-0  00000-0 0  9995
2 28129  53.2621 117.5545 0072688 288.8751  70.3711  2.00573782118138
GPS BIIR-11 (PRN 19)    
1 28190U 04009A   20037.01639215 -.00000058  00000-0  00000-0 0  9996
2 28190  56.2835   7.9548 0089323  89.0749 275.9844  2.00564312116398
GPS BIIR-12 (PRN 23)    
1 28361U 04023A   20036.88056565  .00000042  00000-0  00000-0 0  9999
2 28361  54.0579 180.8123 0136123 234.4885 302.9616  2.00563228114444
GPS BIIR-13 (PRN 02)    
1 28474U 04045A   20037.25896757 -.00000018  00000-0  00000-0 0  9999
2 28474  54.8821  58.2439 0199840 264.6776 192.4778  2.00568799111844
GPS BIIRM-1 (PRN 17)    
1 28874U 05038A   20036.48006515 -.00000060  00000-0  00000+0 0  9991
2 28874  56.3934   5.3514 0136446 265.1455  93.2389  2.00567345105227
GPS BIIRM-2 (PRN 31)    
1 29486U 06042A   20035.35279279  .00000097  00000-0  00000-0 0  9991
2 29486  54.9076 243.7431 0096383   5.1236 177.6912  2.00551566 97809
GPS BIIRM-3 (PRN 12)    
1 29601U 06052A   20034.04396459 -.00000039  00000-0  00000-0 0  9993
2 29601  56.1367 306.2112 0077100  62.4599 298.3625  2.00554449 96758
GPS BIIRM-4 (PRN 15)    
1 32260U 07047A   20036.84489201  .00000033  00000-0  00000-0 0  9994
2 32260  53.1814 176.2844 0119923  48.7669 312.2222  2.00567726 90259
GPS BIIRM-5 (PRN 29)    
1 32384U 07062A   20036.91546007 -.00000059  00000-0  00000-0 0  9993
2 32384  56.4852   5.9970 0008519 115.4699  64.7336  2.00569038 88952
GPS BIIRM-6 (PRN 07)    
1 32711U 08012A   20036.76400507  .00000099  00000-0  00000-0 0  9993
2 32711  54.6519 242.8214 0134434 222.1922 136.8208  2.00560506 87173
GPS BIIRM-8 (PRN 05)    
1 35752U 09043A   20034.28118509 -.00000027  00000-0  00000-0 0  9991
2 35752  54.5259 120.5207 0056067  44.0834 353.5727  2.00572824 76711
GPS BIIF-1  (PRN 25)    
1 36585U 10022A   20036.91913563 -.00000012  00000-0  00000-0 0  9994
2 36585  55.4093 302.2291 0088608  50.4023 196.2011  2.00572677 70999
GPS BIIF-2  (PRN 01)    
1 37753U 11036A   20032.47320285 -.00000042  00000-0  00000-0 0  9991
2 37753  56.0794  62.6725 0091696  42.1203 322.2209  2.00568336 62594
GPS BIIF-3  (PRN 24)    
1 38833U 12053A   20036.94642290  .00000098  00000-0  00000-0 0  9990
2 38833  53.6910 238.7881 0093685  36.4641 324.2207  2.00564365 52955
GPS BIIF-4  (PRN 27)    
1 39166U 13023A   20036.80249261 -.00000062  00000-0  00000+0 0  9995
2 39166  56.0631   2.0330 0077002  27.2656 333.1349  2.00565653 49270
GPS BIIF-5  (PRN 30)    
1 39533U 14008A   20036.30808779  .00000096  00000-0  00000-0 0  9994
2 39533  53.8118 244.2359 0042812 194.7828 165.1489  2.00560888 43093
GPS BIIF-6  (PRN 06)    
1 39741U 14026A   20037.08392627 -.00000013  00000-0  00000-0 0  9991
2 39741  56.0591  62.0173 0020909 291.6126  68.2313  2.00555416 41947
GPS BIIF-7  (PRN 09)    
1 40105U 14045A   20035.17274541  .00000057  00000-0  00000-0 0  9997
2 40105  54.5840 181.3120 0015438 102.8555 257.2899  2.00549087 39471
GPS BIIF-8  (PRN 03)    
1 40294U 14068A   20033.05726147 -.00000024  00000-0  00000-0 0  9995
2 40294  55.2764 122.3066 0024658  38.6626 321.5415  2.00569470 38539
GPS BIIF-9  (PRN 26)    
1 40534U 15013A   20036.68555946 -.00000011  00000-0  00000-0 0  9998
2 40534  54.3288 300.3347 0045806   8.0430 352.0847  2.00555313 35221
GPS BIIF-10 (PRN 08)    
1 40730U 15033A   20036.34234679 -.00000064  00000-0  00000-0 0  9996
2 40730  55.5826   1.2845 0051854 346.8355  13.0292  2.00569924 33408
GPS BIIF-11 (PRN 10)    
1 41019U 15062A   20034.39878809 -.00000026  00000-0  00000-0 0  9999
2 41019  55.2756 122.0755 0054693 208.3779 151.3504  2.00564494 31188
GPS BIIF-12 (PRN 32)    
1 41328U 16007A   20036.48334558  .00000048  00000-0  00000+0 0  9994
2 41328  54.8218 181.7110 0036601 217.8374 141.8733  2.00562756 29286
GPS BIII-1  (PRN 04)    
1 43873U 18109A   20037.18836760  .00000047  00000-0  00000-0 0  9996
2 43873  55.0033 183.9264 0006428 222.6475 179.2717  2.00557658  8521
